1 47456U 21006AV  21250.67323448  .00001440  00000-0  84824-4 0  9991
2 47456  97.4872 310.5194 0011665 166.4585 193.6961 15.13132609 34487
1 47456U 21006AV  21251.13614499  .00001437  00000-0  84685-4 0  9993
2 47456  97.4871 310.9738 0011706 164.7823 195.3763 15.13133939 34550
1 47456U 21006AV  21251.92970496  .00001486  00000-0  87418-4 0  9993
2 47456  97.4870 311.7532 0011787 162.2284 197.9362 15.13136382 34674
1 47456U 21006AV  21252.39261512  .00001419  00000-0  83652-4 0  9999
2 47456  97.4869 312.2075 0011813 160.4441 199.7245 15.13137131 34746
1 47456U 21006AV  21253.12004320  .00001365  00000-0  80596-4 0  9997
2 47456  97.4866 312.9219 0011890 158.2207 201.9532 15.13138910 34853
1 47456U 21006AV  21253.71521107  .00001480  00000-0  87065-4 0  9995
2 47456  97.4866 313.5062 0011932 156.2869 203.8915 15.13141193 34948
1 47456U 21006AV  21254.17811825  .00001606  00000-0  94142-4 0  9999
2 47456  97.4863 313.9607 0012021 154.8467 205.3352 15.13143354 35014
1 47456U 21006AV  21254.70715581  .00001340  00000-0  79189-4 0  9999
2 47456  97.4862 314.4801 0012036 153.1223 207.0634 15.13143290 35092
1 47456U 21006AV  21255.10393330  .00001318  00000-0  77911-4 0  9994
2 47456  97.4861 314.8696 0012066 151.8730 208.3155 15.13144215 35155
1 47456U 21006AV  21255.17006301  .00001287  00000-0  76155-4 0  9994
2 47456  97.4861 314.9346 0012071 151.6665 208.5225 15.13144179 35169
1 47456U 21006AV  21255.89748746  .00001252  00000-0  74170-4 0  9996
2 47456  97.4860 315.6488 0012140 149.4239 210.7702 15.13145998 35279
1 47456U 21006AV  21256.09587583  .00001230  00000-0  72970-4 0  9991
2 47456  97.4860 315.8436 0012160 148.8042 211.3913 15.13146447 35306
1 47456U 21006AV  21256.62491121  .00001183  00000-0  70279-4 0  9999
2 47456  97.4859 316.3630 0012211 147.1734 213.0258 15.13147667 35387
1 47456U 21006AV  21256.69104048  .00001209  00000-0  71765-4 0  9995
2 47456  97.4859 316.4279 0012213 146.9437 213.2560 15.13148029 35398
1 47456U 21006AV  21257.15394591  .00001174  00000-0  69805-4 0  9994
2 47456  97.4858 316.8823 0012249 145.4722 214.7307 15.13149155 35460
1 47456U 21006AV  21257.61685104  .00001119  00000-0  66714-4 0  9993
2 47456  97.4858 317.3368 0012294 144.0037 216.2024 15.13150170 35534
1 47456U 21006AV  21257.74910959  .00001103  00000-0  65793-4 0  9995
2 47456  97.4858 317.4666 0012303 143.5872 216.6198 15.13150435 35550
1 47456U 21006AV  21258.41040194  .00001066  00000-0  63682-4 0  9998
2 47456  97.4858 318.1158 0012356 141.4762 218.7353 15.13151988 35658
1 47456U 21006AV  21258.74104787  .00001039  00000-0  62202-4 0  9990
2 47456  97.4857 318.4404 0012381 140.4705 219.7431 15.13152705 35700
1 47456U 21006AV  21259.13782288  .00001010  00000-0  60542-4 0  9996
2 47456  97.4857 318.8300 0012409 139.2029 221.0134 15.13153492 35761
1 47456U 21006AV  21259.60072683  .00001018  00000-0  60973-4 0  9995
2 47456  97.4857 319.2844 0012447 137.7113 222.5080 15.13154579 35839
1 47456U 21006AV  21260.12975962  .00000978  00000-0  58746-4 0  9995
2 47456  97.4856 319.8038 0012481 136.0614 224.1611 15.13155450 35911
1 47456U 21006AV  21260.59266266  .00001016  00000-0  60879-4 0  9990
2 47456  97.4856 320.2583 0012516 134.6664 225.5589 15.13156676 35987
1 47456U 21006AV  21261.45233912  .00000989  00000-0  59371-4 0  9991
2 47456  97.4854 321.1022 0012558 131.9047 228.3257 15.13158312 36112
1 47456U 21006AV  21261.58459711  .00000901  00000-0  54383-4 0  9994
2 47456  97.4854 321.2321 0012576 131.5243 228.7069 15.13158077 36134
1 47456U 21006AV  21261.91524146  .00000883  00000-0  53384-4 0  9995
2 47456  97.4853 321.5567 0012590 130.5126 229.7204 15.13158667 36185
1 47456U 21006AV  21262.11362827  .00000809  00000-0  49221-4 0  9997
2 47456  97.4853 321.7514 0012594 129.9045 230.3295 15.13158620 36216
1 47456U 21006AV  21262.90717390  .00000904  00000-0  54532-4 0  9990
2 47456  97.4851 322.5305 0012638 127.4729 232.7654 15.13160808 36331
1 47456U 21006AV  21263.10556016  .00000901  00000-0  54413-4 0  9994
2 47456  97.4851 322.7252 0012634 126.8936 233.3455 15.13161230 36362
1 47456U 21006AV  21263.17168905  .00000936  00000-0  56345-4 0  9991
2 47456  97.4851 322.7901 0012637 126.6929 233.5466 15.13161507 36378
1 47456U 21006AV  21264.42813445  .00000976  00000-0  58609-4 0  9995
2 47456  97.4849 324.0235 0012690 122.9119 237.3335 15.13164336 36560
1 47456U 21006AV  21264.89103466  .00000970  00000-0  58281-4 0  9991
2 47456  97.4848 324.4780 0012708 121.4906 238.7568 15.13165369 36634
1 47456U 21006AV  21265.42006287  .00001150  00000-0  68366-4 0  9990
2 47456  97.4848 324.9973 0012727 119.8613 240.3885 15.13167610 36711
1 47456U 21006AV  21266.14747600  .00001119  00000-0  66667-4 0  9998
2 47456  97.4846 325.7114 0012755 117.6453 242.6075 15.13169251 36825
1 47456U 21006AV  21266.41198978  .00001222  00000-0  72454-4 0  9992
2 47456  97.4846 325.9711 0012769 116.8382 243.4156 15.13170389 36864
1 47456U 21006AV  21266.74263175  .00001189  00000-0  70591-4 0  9992
2 47456  97.4845 326.2957 0012786 115.8207 244.4344 15.13171014 36915
1 47456U 21006AV  21267.40391499  .00001187  00000-0  70467-4 0  9997
2 47456  97.4844 326.9448 0012816 113.7996 246.4580 15.13172589 37016
1 47456U 21006AV  21267.73455615  .00001419  00000-0  83540-4 0  9998
2 47456  97.4843 327.2694 0012819 112.7617 247.4970 15.13174660 37065
1 47456U 21006AV  21268.13132564  .00001486  00000-0  87263-4 0  9998
2 47456  97.4842 327.6589 0012834 111.5528 248.7073 15.13175893 37120
1 47456U 21006AV  21268.39583830  .00001515  00000-0  88923-4 0  9999
2 47456  97.4842 327.9185 0012849 110.7457 249.5152 15.13176694 37164
1 47456U 21006AV  21269.05711897  .00001635  00000-0  95676-4 0  9995
2 47456  97.4840 328.5676 0012863 108.7261 251.5367 15.13179098 37263
1 47456U 21006AV  21269.12324740  .00001625  00000-0  95102-4 0  9993
2 47456  97.4840 328.6325 0012866 108.5274 251.7357 15.13179092 37276
1 47456U 21006AV  21270.04903874  .00001699  00000-0  99265-4 0  9992
2 47456  97.4838 329.5412 0012885 105.7245 254.5408 15.13182084 37417
1 47456U 21006AV  21270.57806218  .00001268  00000-0  74977-4 0  9999
2 47456  97.4837 330.0605 0012895 104.1697 256.0967 15.13181182 37495
1 47456U 21006AV  21271.50385060  .00001630  00000-0  95385-4 0  9999
2 47456  97.4836 330.9692 0012900 101.3163 258.9518 15.13185979 37630
1 47456U 21006AV  21271.70223353  .00001625  00000-0  95058-4 0  9998
2 47456  97.4836 331.1639 0012896 100.7139 259.5545 15.13186614 37661
1 47456U 21006AV  21272.42963759  .00001623  00000-0  94961-4 0  9999
2 47456  97.4835 331.8778 0012896  98.5096 261.7597 15.13188795 37773
1 47456U 21006AV  21272.76027546  .00001554  00000-0  91057-4 0  9997
2 47456  97.4835 332.2024 0012890  97.5082 262.7614 15.13189437 37821
1 47456U 21006AV  21273.48767725  .00001669  00000-0  97550-4 0  9998
2 47456  97.4835 332.9163 0012883  95.3223 264.9478 15.13192517 37934
1 47456U 21006AV  21274.14895020  .00001705  00000-0  99566-4 0  9992
2 47456  97.4834 333.5654 0012880  93.3125 266.9580 15.13195114 38035
1 47456U 21006AV  21274.54571355  .00001719  00000-0  10033-3 0  9994
2 47456  97.4834 333.9548 0012888  92.1277 268.1430 15.13196613 38093
1 47456U 21006AV  21274.87634955  .00001668  00000-0  97457-4 0  9995
2 47456  97.4834 334.2793 0012893  91.1264 269.1444 15.13197477 38141
1 47456U 21006AV  21275.20698592  .00001457  00000-0  85587-4 0  9997
2 47456  97.4833 334.6038 0012894  90.1468 270.1240 15.13197253 38195
1 47456U 21006AV  21275.40536732  .00001453  00000-0  85386-4 0  9999
2 47456  97.4834 334.7985 0012898  89.5562 270.7147 15.13197870 38220
1 47456U 21006AV  21275.73600203  .00001615  00000-0  94483-4 0  9998
2 47456  97.4833 335.1230 0012908  88.5533 271.7176 15.13200027 38273
1 47456U 21006AV  21276.52952557  .00001631  00000-0  95399-4 0  9993
2 47456  97.4832 335.9018 0012906  86.1675 274.1032 15.13202757 38396
1 47456U 21006AV  21276.72790638  .00001598  00000-0  93499-4 0  9996
2 47456  97.4832 336.0965 0012896  85.5486 274.7218 15.13203195 38423
1 47456U 21006AV  21276.86016001  .00001656  00000-0  96766-4 0  9991
2 47456  97.4831 336.2264 0012894  85.1293 275.1410 15.13203913 38445
1 47456U 21006AV  21277.58755490  .00001679  00000-0  98055-4 0  9991
2 47456  97.4830 336.9402 0012881  82.9443 277.3253 15.13206480 38556
1 47456U 21006AV  21277.85206193  .00001648  00000-0  96307-4 0  9996
2 47456  97.4829 337.1998 0012877  82.1364 278.1329 15.13207096 38597
1 47456U 21006AV  21278.11656861  .00001607  00000-0  94018-4 0  9999
2 47456  97.4829 337.4594 0012869  81.3166 278.9522 15.13207915 38632
1 47456U 21006AV  21278.44720182  .00001593  00000-0  93218-4 0  9998
2 47456  97.4828 337.7839 0012861  80.3383 279.9300 15.13208989 38680
1 47456U 21006AV  21278.84396142  .00001490  00000-0  87425-4 0  9996
2 47456  97.4827 338.1733 0012847  79.1454 281.1222 15.13209804 38748
1 47456U 21006AV  21279.43910029  .00001420  00000-0  83482-4 0  9990
2 47456  97.4826 338.7573 0012826  77.3211 282.9454 15.13211331 38837
1 47456U 21006AV  21279.90198505  .00001434  00000-0  84282-4 0  9993
2 47456  97.4825 339.2116 0012804  75.9193 284.3460 15.13213060 38906
1 47456U 21006AV  21280.56324850  .00001494  00000-0  87621-4 0  9997
2 47456  97.4824 339.8605 0012774  73.9004 286.3633 15.13215599 39004
1 47456U 21006AV  21280.76162740  .00001464  00000-0  85932-4 0  9997
2 47456  97.4823 340.0552 0012765  73.2732 286.9899 15.13216117 39039
1 47456U 21006AV  21280.89387973  .00001484  00000-0  87072-4 0  9997
2 47456  97.4823 340.1849 0012757  72.8635 287.3992 15.13216715 39052
1 47456U 21006AV  21281.55514204  .00001477  00000-0  86660-4 0  9994
2 47456  97.4822 340.8339 0012728  70.8515 289.4092 15.13218839 39159
1 47456U 21006AV  21281.81964665  .00001423  00000-0  83655-4 0  9995
2 47456  97.4821 341.0935 0012715  70.0334 290.2265 15.13219434 39198
1 47456U 21006AV  21282.08415108  .00001415  00000-0  83168-4 0  9998
2 47456  97.4821 341.3530 0012702  69.2157 291.0433 15.13220254 39234
